COMMENT,ORIGINATOR,NORAD_CAT_ID,OBJECT_NAME,OBJECT_TYPE,CLASSIFICATION_TYPE,INTLDES,EPOCH,EPOCH_MICROSECONDS,MEAN_MOTION,ECCENTRICITY,INCLINATION,RA_OF_ASC_NODE,ARG_OF_PERICENTER,MEAN_ANOMALY,EPHEMERIS_TYPE,ELEMENT_SET_NO,REV_AT_EPOCH,BSTAR,MEAN_MOTION_DOT,MEAN_MOTION_DDOT,FILE,TLE_LINE0,TLE_LINE1,TLE_LINE2,OBJECT_ID,OBJECT_NUMBER,SEMIMAJOR_AXIS,PERIOD,APOGEE,PERIGEE,DECAYED
"GENERATED VIA SPACETRACK.ORG API","18 SPCS","48899","SPACEBEE-110","PAYLOAD","U","21059W","2023-03-04 19:59:47","234976","15.2493038","0.0008704","97.5819","199.4193","273.0847","86.9394","0","999","9348","0.0017456","0.00043653","0","3851307","0 SPACEBEE-110","1 48899U 21059W   23063.83318559  .00043653  00000-0  17456-2 0  9997","2 48899  97.5819 199.4193 0008704 273.0847  86.9394 15.24930380 93483","2021-059W","48899","6869.131","94.431","496.975","485.018","0"
"GENERATED VIA SPACETRACK.ORG API","18 SPCS","48899","SPACEBEE-110","PAYLOAD","U","21059W","2023-03-04 19:59:47","234976","15.2493038","0.0008704","97.5819","199.4193","273.0847","86.9394","0","999","9348","0.0017456","0.00043653","0","3851350","0 SPACEBEE-110","1 48899U 21059W   23063.83318559  .00043653  00000-0  17456-2 0  9997","2 48899  97.5819 199.4193 0008704 273.0847  86.9394 15.24930380 93483","2021-059W","48899","6869.131","94.431","496.975","485.018","0"
"GENERATED VIA SPACETRACK.ORG API","18 SPCS","48899","SPACEBEE-110","PAYLOAD","U","21059W","2023-03-05 08:35:42","124416","15.24980887","0.0008731","97.5819","199.9509","271.2776","88.7461","0","999","9356","0.0019051","0.00047747","0","3851939","0 SPACEBEE-110","1 48899U 21059W   23064.35812644  .00047747  00000-0  19051-2 0  9990","2 48899  97.5819 199.9509 0008731 271.2776  88.7461 15.24980887 93561","2021-059W","48899","6868.980","94.427","496.842","484.848","0"
"GENERATED VIA SPACETRACK.ORG API","18 SPCS","48899","SPACEBEE-110","PAYLOAD","U","21059W","2023-03-05 21:11:35","426688","15.25034982","0.0008758","97.5818","200.4824","269.5804","90.4429","0","999","9364","0.0019691","0.00049445","0","3852206","0 SPACEBEE-110","1 48899U 21059W   23064.88304892  .00049445  00000-0  19691-2 0  9996","2 48899  97.5818 200.4824 0008758 269.5804  90.4429 15.25034982 93649","2021-059W","48899","6868.817","94.424","496.698","484.667","0"
"GENERATED VIA SPACETRACK.ORG API","18 SPCS","48899","SPACEBEE-110","PAYLOAD","U","21059W","2023-03-05 21:11:35","426688","15.25034982","0.0008758","97.5818","200.4824","269.5804","90.4429","0","999","9364","0.0019691","0.00049445","0","3852256","0 SPACEBEE-110","1 48899U 21059W   23064.88304892  .00049445  00000-0  19691-2 0  9996","2 48899  97.5818 200.4824 0008758 269.5804  90.4429 15.25034982 93649","2021-059W","48899","6868.817","94.424","496.698","484.667","0"
"GENERATED VIA SPACETRACK.ORG API","18 SPCS","48899","SPACEBEE-110","PAYLOAD","U","21059W","2023-03-06 14:30:53","631360","15.25104765","0.0008812","97.5818","201.2135","267.1537","92.8692","0","999","9375","0.0018308","0.00046042","0","3853141","0 SPACEBEE-110","1 48899U 21059W   23065.60478740  .00046042  00000-0  18308-2 0  9995","2 48899  97.5818 201.2135 0008812 267.1537  92.8692 15.25104765 93758","2021-059W","48899","6868.608","94.420","496.525","484.420","0"
"GENERATED VIA SPACETRACK.ORG API","18 SPCS","48899","SPACEBEE-110","PAYLOAD","U","21059W","2023-03-07 03:06:43","199424","15.25160951","0.0008849","97.5821","201.7445","266.5045","93.518","0","999","9383","0.0020338","0.00051278","0","3853485","0 SPACEBEE-110","1 48899U 21059W   23066.12966666  .00051278  00000-0  20338-2 0  9995","2 48899  97.5821 201.7445 0008849 266.5045  93.5180 15.25160951 93836","2021-059W","48899","6868.439","94.416","496.382","484.226","0"
"GENERATED VIA SPACETRACK.ORG API","18 SPCS","48899","SPACEBEE-110","PAYLOAD","U","21059W","2023-03-07 14:08:02","641344","15.25214017","0.0008854","97.5821","202.2099","264.5815","95.4412","0","999","9390","0.002201","0.0005562","0","3854072","0 SPACEBEE-110","1 48899U 21059W   23066.58891946  .00055620  00000-0  22010-2 0  9997","2 48899  97.5821 202.2099 0008854 264.5815  95.4412 15.25214017 93906","2021-059W","48899","6868.280","94.413","496.226","484.064","0"
"GENERATED VIA SPACETRACK.ORG API","18 SPCS","48899","SPACEBEE-110","PAYLOAD","U","21059W","2023-03-08 09:01:41","737728","15.2529267","0.0008757","97.5826","203.0077","261.3788","98.6457","0","999","9402","0.0017401","0.00043992","0","3854674","0 SPACEBEE-110","1 48899U 21059W   23067.37617752  .00043992  00000-0  17401-2 0  9993","2 48899  97.5826 203.0077 0008757 261.3788  98.6457 15.25292670 94021","2021-059W","48899","6868.044","94.408","495.923","483.894","0"
"GENERATED VIA SPACETRACK.ORG API","18 SPCS","48899","SPACEBEE-110","PAYLOAD","U","21059W","2023-03-08 09:01:41","737728","15.2529267","0.0008757","97.5826","203.0077","261.3788","98.6457","0","999","9402","0.0017401","0.00043992","0","3855077","0 SPACEBEE-110","1 48899U 21059W   23067.37617752  .00043992  00000-0  17401-2 0  9993","2 48899  97.5826 203.0077 0008757 261.3788  98.6457 15.25292670 94021","2021-059W","48899","6868.044","94.408","495.923","483.894","0"
"GENERATED VIA SPACETRACK.ORG API","18 SPCS","48899","SPACEBEE-110","PAYLOAD","U","21059W","2023-03-09 08:38:40","584480","15.2539656","0.0008744","97.5829","204.0048","258.0144","102.0113","0","999","9417","0.0020198","0.00051284","0","3855848","0 SPACEBEE-110","1 48899U 21059W   23068.36019195  .00051284  00000-0  20198-2 0  9990","2 48899  97.5829 204.0048 0008744 258.0144 102.0113 15.25396560 94176","2021-059W","48899","6867.732","94.402","495.602","483.592","0"
"GENERATED VIA SPACETRACK.ORG API","18 SPCS","48899","SPACEBEE-110","PAYLOAD","U","21059W","2023-03-09 21:14:21","440832","15.25458353","0.0008774","97.5833","204.5371","256.8916","103.1342","0","999","9425","0.0021919","0.00055797","0","3855951","0 SPACEBEE-110","1 48899U 21059W   23068.88497038  .00055797  00000-0  21919-2 0  9998","2 48899  97.5833 204.5371 0008774 256.8916 103.1342 15.25458353 94255","2021-059W","48899","6867.546","94.398","495.437","483.386","0"
"GENERATED VIA SPACETRACK.ORG API","18 SPCS","48899","SPACEBEE-110","PAYLOAD","U","21059W","2023-03-10 08:15:33","189696","15.25513807","0.0008833","97.5833","205.0021","254.9549","105.0711","0","999","9432","0.0022481","0.00057337","0","3856584","0 SPACEBEE-110","1 48899U 21059W   23069.34413414  .00057337  00000-0  22481-2 0  9993","2 48899  97.5833 205.0021 0008833 254.9549 105.0711 15.25513807 94325","2021-059W","48899","6867.380","94.394","495.311","483.179","0"
"GENERATED VIA SPACETRACK.ORG API","18 SPCS","48899","SPACEBEE-110","PAYLOAD","U","21059W","2023-03-10 20:51:10","838016","15.25563207","0.0008829","97.5833","205.5346","253.8861","106.1404","0","999","9440","0.0019571","0.0004993","0","3856975","0 SPACEBEE-110","1 48899U 21059W   23069.86887544  .00049930  00000-0  19571-2 0  9995","2 48899  97.5833 205.5346 0008829 253.8861 106.1404 15.25563207 94409","2021-059W","48899","6867.232","94.391","495.160","483.034","0"
"GENERATED VIA SPACETRACK.ORG API","18 SPCS","48899","SPACEBEE-110","PAYLOAD","U","21059W","2023-03-11 06:17:52","973952","15.25607465","0.0008871","97.5835","205.9332","252.1713","107.8557","0","999","9446","0.0021689","0.00055456","0","3857262","0 SPACEBEE-110","1 48899U 21059W   23070.26241868  .00055456  00000-0  21689-2 0  9997","2 48899  97.5835 205.9332 0008871 252.1713 107.8557 15.25607465 94463","2021-059W","48899","6867.099","94.389","495.056","482.872","0"
"GENERATED VIA SPACETRACK.ORG API","18 SPCS","48899","SPACEBEE-110","PAYLOAD","U","21059W","2023-03-11 07:52:19","914528","15.25615005","0.0008876","97.5835","205.9996","251.9645","108.0625","0","999","9447","0.0021212","0.00054239","0","3857581","0 SPACEBEE-110","1 48899U 21059W   23070.32800827  .00054239  00000-0  21212-2 0  9990","2 48899  97.5835 205.9996 0008876 251.9645 108.0625 15.25615005 94474","2021-059W","48899","6867.076","94.388","495.037","482.846","0"
"GENERATED VIA SPACETRACK.ORG API","18 SPCS","48899","SPACEBEE-110","PAYLOAD","U","21059W","2023-03-12 07:29:01","178880","15.25708972","0.0008852","97.5835","206.9973","249.533","110.4958","0","999","9462","0.0019022","0.00048732","0","3858178","0 SPACEBEE-110","1 48899U 21059W   23071.31181920  .00048732  00000-0  19022-2 0  9993","2 48899  97.5835 206.9973 0008852 249.5330 110.4958 15.25708972 94627","2021-059W","48899","6866.794","94.382","494.738","482.581","0"
"GENERATED VIA SPACETRACK.ORG API","18 SPCS","48899","SPACEBEE-110","PAYLOAD","U","21059W","2023-03-12 07:29:01","178880","15.25708972","0.0008852","97.5835","206.9973","249.533","110.4958","0","999","9462","0.0019022","0.00048732","0","3858534","0 SPACEBEE-110","1 48899U 21059W   23071.31181920  .00048732  00000-0  19022-2 0  9993","2 48899  97.5835 206.9973 0008852 249.5330 110.4958 15.25708972 94627","2021-059W","48899","6866.794","94.382","494.738","482.581","0"
"GENERATED VIA SPACETRACK.ORG API","18 SPCS","48899","SPACEBEE-110","PAYLOAD","U","21059W","2023-03-13 08:40:03","461952","15.2579865","0.0008799","97.5835","208.0614","245.7626","114.2692","0","999","9478","0.0015346","0.00039356","0","3859321","0 SPACEBEE-110","1 48899U 21059W   23072.36115118  .00039356  00000-0  15346-2 0  9992","2 48899  97.5835 208.0614 0008799 245.7626 114.2692 15.25798650 94784","2021-059W","48899","6866.525","94.377","494.432","482.348","0"
"GENERATED VIA SPACETRACK.ORG API","18 SPCS","48899","SPACEBEE-110","PAYLOAD","U","21059W","2023-03-13 08:40:03","461952","15.2579865","0.0008799","97.5835","208.0614","245.7626","114.2692","0","999","9478","0.0015346","0.00039356","0","3859425","0 SPACEBEE-110","1 48899U 21059W   23072.36115118  .00039356  00000-0  15346-2 0  9992","2 48899  97.5835 208.0614 0008799 245.7626 114.2692 15.25798650 94784","2021-059W","48899","6866.525","94.377","494.432","482.348","0"
